[{"OBJECT_NAME":"STARLINK-1821","OBJECT_ID":"2020-073BA","EPOCH":"2025-11-07T22:39:27.593568","MEAN_MOTION":15.22902093,"ECCENTRICITY":0.00035329,"INCLINATION":53.0575,"RA_OF_ASC_NODE":73.0473,"ARG_OF_PERICENTER":177.3125,"MEAN_ANOMALY":182.7891,"EPHEMERIS_TYPE":0,"CLASSIFICATION_TYPE":"U","NORAD_CAT_ID":46718,"ELEMENT_SET_NO":999,"REV_AT_EPOCH":27871,"BSTAR":0.0010329976,"MEAN_MOTION_DOT":0.00024284,"MEAN_MOTION_DDOT":0},{"OBJECT_NAME":"STARLINK-1826","OBJECT_ID":"2020-073BF","EPOCH":"2025-11-08T11:25:40.911744","MEAN_MOTION":15.32314992,"ECCENTRICITY":0.0002596,"INCLINATION":53.0554,"RA_OF_ASC_NODE":38.5205,"ARG_OF_PERICENTER":18.3996,"MEAN_ANOMALY":341.7098,"EPHEMERIS_TYPE":0,"CLASSIFICATION_TYPE":"U","NORAD_CAT_ID":46723,"ELEMENT_SET_NO":999,"REV_AT_EPOCH":27924,"BSTAR":0.0025465,"MEAN_MOTION_DOT":0.00081077,"MEAN_MOTION_DDOT":0},{"OBJECT_NAME":"STARLINK-1828","OBJECT_ID":"2020-073BH","EPOCH":"2025-11-08T02:17:46.048704","MEAN_MOTION":15.06389848,"ECCENTRICITY":0.00014526,"INCLINATION":53.0535,"RA_OF_ASC_NODE":82.4715,"ARG_OF_PERICENTER":86.2569,"MEAN_ANOMALY":273.8586,"EPHEMERIS_TYPE":0,"CLASSIFICATION_TYPE":"U","NORAD_CAT_ID":46725,"ELEMENT_SET_NO":999,"REV_AT_EPOCH":27859,"BSTAR":-0.00015079704,"MEAN_MOTION_DOT":-2.526e-5,"MEAN_MOTION_DDOT":0},{"OBJECT_NAME":"STARLINK-1830","OBJECT_ID":"2020-073BK","EPOCH":"2025-11-08T11:38:42.404064","MEAN_MOTION":15.30914672,"ECCENTRICITY":0.0004386,"INCLINATION":53.0553,"RA_OF_ASC_NODE":38.0325,"ARG_OF_PERICENTER":356.0546,"MEAN_ANOMALY":4.0418,"EPHEMERIS_TYPE":0,"CLASSIFICATION_TYPE":"U","NORAD_CAT_ID":46727,"ELEMENT_SET_NO":999,"REV_AT_EPOCH":27925,"BSTAR":0.0022635,"MEAN_MOTION_DOT":0.00068832,"MEAN_MOTION_DDOT":0},{"OBJECT_NAME":"STARLINK-1848","OBJECT_ID":"2020-074B","EPOCH":"2025-11-08T12:00:00.998784","MEAN_MOTION":15.48411231,"ECCENTRICITY":0.0011512,"INCLINATION":53.0494,"RA_OF_ASC_NODE":131.4828,"ARG_OF_PERICENTER":134.1892,"MEAN_ANOMALY":291.9522,"EPHEMERIS_TYPE":0,"CLASSIFICATION_TYPE":"U","NORAD_CAT_ID":46740,"ELEMENT_SET_NO":999,"REV_AT_EPOCH":583,"BSTAR":0.0034358,"MEAN_MOTION_DOT":0.00189701,"MEAN_MOTION_DDOT":0},{"OBJECT_NAME":"STARLINK-1892","OBJECT_ID":"2020-074E","EPOCH":"2025-11-08T12:05:08.513664","MEAN_MOTION":15.27614434,"ECCENTRICITY":6.93e-5,"INCLINATION":53.0507,"RA_OF_ASC_NODE":144.1613,"ARG_OF_PERICENTER":129.9359,"MEAN_ANOMALY":230.1701,"EPHEMERIS_TYPE":0,"CLASSIFICATION_TYPE":"U","NORAD_CAT_ID":46743,"ELEMENT_SET_NO":999,"REV_AT_EPOCH":27843,"BSTAR":0.0006743,"MEAN_MOTION_DOT":0.00018144,"MEAN_MOTION_DDOT":0},{"OBJECT_NAME":"STARLINK-1894","OBJECT_ID":"2020-074F","EPOCH":"2025-11-08T12:00:00.998784","MEAN_MOTION":15.36842433,"ECCENTRICITY":0.000151,"INCLINATION":53.0537,"RA_OF_ASC_NODE":143.9244,"ARG_OF_PERICENTER":103.202,"MEAN_ANOMALY":266.0021,"EPHEMERIS_TYPE":0,"CLASSIFICATION_TYPE":"U","NORAD_CAT_ID":46744,"ELEMENT_SET_NO":999,"REV_AT_EPOCH":583,"BSTAR":0.040295,"MEAN_MOTION_DOT":0.01620108,"MEAN_MOTION_DDOT":0},{"OBJECT_NAME":"STARLINK-1905","OBJECT_ID":"2020-074H","EPOCH":"2025-11-08T11:11:55.696704","MEAN_MOTION":15.35092624,"ECCENTRICITY":0.0001105,"INCLINATION":53.0543,"RA_OF_ASC_NODE":143.5827,"ARG_OF_PERICENTER":115.8352,"MEAN_ANOMALY":244.2764,"EPHEMERIS_TYPE":0,"CLASSIFICATION_TYPE":"U","NORAD_CAT_ID":46746,"ELEMENT_SET_NO":999,"REV_AT_EPOCH":27843,"BSTAR":0.0028174,"MEAN_MOTION_DOT":0.0009822,"MEAN_MOTION_DDOT":0},{"OBJECT_NAME":"STARLINK-1911","OBJECT_ID":"2020-074L","EPOCH":"2025-11-08T12:00:00.998784","MEAN_MOTION":15.37649821,"ECCENTRICITY":0.0001195,"INCLINATION":53.063,"RA_OF_ASC_NODE":143.8149,"ARG_OF_PERICENTER":90.541,"MEAN_ANOMALY":275.1755,"EPHEMERIS_TYPE":0,"CLASSIFICATION_TYPE":"U","NORAD_CAT_ID":46749,"ELEMENT_SET_NO":999,"REV_AT_EPOCH":573,"BSTAR":0.026939,"MEAN_MOTION_DOT":0.01105644,"MEAN_MOTION_DDOT":0},{"OBJECT_NAME":"STARLINK-1922","OBJECT_ID":"2020-074Q","EPOCH":"2025-11-08T12:00:00.998784","MEAN_MOTION":15.34839141,"ECCENTRICITY":0.0001181,"INCLINATION":53.0552,"RA_OF_ASC_NODE":143.768,"ARG_OF_PERICENTER":74.9133,"MEAN_ANOMALY":95.3788,"EPHEMERIS_TYPE":0,"CLASSIFICATION_TYPE":"U","NORAD_CAT_ID":46753,"ELEMENT_SET_NO":999,"REV_AT_EPOCH":582,"BSTAR":0.0028315,"MEAN_MOTION_DOT":0.00097914,"MEAN_MOTION_DDOT":0},{"OBJECT_NAME":"STARLINK-1928","OBJECT_ID":"2020-074V","EPOCH":"2025-11-08T11:22:22.948608","MEAN_MOTION":15.3632174,"ECCENTRICITY":0.0002228,"INCLINATION":53.0543,"RA_OF_ASC_NODE":146.8956,"ARG_OF_PERICENTER":139.7128,"MEAN_ANOMALY":220.4039,"EPHEMERIS_TYPE":0,"CLASSIFICATION_TYPE":"U","NORAD_CAT_ID":46758,"ELEMENT_SET_NO":999,"REV_AT_EPOCH":27839,"BSTAR":0.0027228,"MEAN_MOTION_DOT":0.00098739,"MEAN_MOTION_DDOT":0},{"OBJECT_NAME":"STARLINK-1903","OBJECT_ID":"2020-074AB","EPOCH":"2025-11-08T11:35:58.741728","MEAN_MOTION":16.01262011,"ECCENTRICITY":0.0008681,"INCLINATION":53.0058,"RA_OF_ASC_NODE":53.0807,"ARG_OF_PERICENTER":327.9322,"MEAN_ANOMALY":32.1178,"EPHEMERIS_TYPE":0,"CLASSIFICATION_TYPE":"U","NORAD_CAT_ID":46764,"ELEMENT_SET_NO":999,"REV_AT_EPOCH":27970,"BSTAR":0.0015105,"MEAN_MOTION_DOT":0.00850988,"MEAN_MOTION_DDOT":0.00035853},{"OBJECT_NAME":"STARLINK-1832","OBJECT_ID":"2020-074AT","EPOCH":"2025-11-08T12:00:00.998784","MEAN_MOTION":15.36440434,"ECCENTRICITY":0.0001226,"INCLINATION":53.0553,"RA_OF_ASC_NODE":133.8903,"ARG_OF_PERICENTER":79.0946,"MEAN_ANOMALY":201.5021,"EPHEMERIS_TYPE":0,"CLASSIFICATION_TYPE":"U","NORAD_CAT_ID":46780,"ELEMENT_SET_NO":999,"REV_AT_EPOCH":583,"BSTAR":0.03917,"MEAN_MOTION_DOT":0.01548084,"MEAN_MOTION_DDOT":0},{"OBJECT_NAME":"STARLINK-1835","OBJECT_ID":"2020-074AV","EPOCH":"2025-11-08T12:27:35.326368","MEAN_MOTION":15.34521431,"ECCENTRICITY":5.23e-5,"INCLINATION":53.053,"RA_OF_ASC_NODE":133.2677,"ARG_OF_PERICENTER":133.6213,"MEAN_ANOMALY":226.4831,"EPHEMERIS_TYPE":0,"CLASSIFICATION_TYPE":"U","NORAD_CAT_ID":46782,"ELEMENT_SET_NO":999,"REV_AT_EPOCH":27858,"BSTAR":0.0027458,"MEAN_MOTION_DOT":0.00093931,"MEAN_MOTION_DDOT":0},{"OBJECT_NAME":"STARLINK-1882","OBJECT_ID":"2020-074AX","EPOCH":"2025-11-08T05:50:10.774464","MEAN_MOTION":15.29424896,"ECCENTRICITY":0.00027961,"INCLINATION":53.0584,"RA_OF_ASC_NODE":132.8128,"ARG_OF_PERICENTER":160.5471,"MEAN_ANOMALY":199.5636,"EPHEMERIS_TYPE":0,"CLASSIFICATION_TYPE":"U","NORAD_CAT_ID":46784,"ELEMENT_SET_NO":999,"REV_AT_EPOCH":27856,"BSTAR":0.0028802941,"MEAN_MOTION_DOT":0.00083889,"MEAN_MOTION_DDOT":0},{"OBJECT_NAME":"STARLINK-1893","OBJECT_ID":"2020-074AZ","EPOCH":"2025-11-08T04:43:37.654176","MEAN_MOTION":15.26730603,"ECCENTRICITY":4.542e-5,"INCLINATION":53.0588,"RA_OF_ASC_NODE":115.6932,"ARG_OF_PERICENTER":322.0128,"MEAN_ANOMALY":38.0838,"EPHEMERIS_TYPE":0,"CLASSIFICATION_TYPE":"U","NORAD_CAT_ID":46786,"ELEMENT_SET_NO":999,"REV_AT_EPOCH":27880,"BSTAR":0.0034137856,"MEAN_MOTION_DOT":0.00091714,"MEAN_MOTION_DDOT":0}]
