STARLINK-1821           
1 46718U 20073BA  25311.94406937  .00024284  00000+0  10330-2 0  9990
2 46718  53.0575  73.0473 0003532 177.3125 182.7891 15.22902093278710
STARLINK-1826           
1 46723U 20073BF  25312.47616796  .00081077  00000+0  25465-2 0  9999
2 46723  53.0554  38.5205 0002596  18.3996 341.7098 15.32314992279242
STARLINK-1828           
1 46725U 20073BH  25312.09567186 -.00002526  00000+0 -15080-3 0  9994
2 46725  53.0535  82.4715 0001452  86.2569 273.8586 15.06389848278594
STARLINK-1830           
1 46727U 20073BK  25312.48521301  .00068832  00000+0  22635-2 0  9991
2 46727  53.0553  38.0325 0004386 356.0546   4.0418 15.30914672279250
STARLINK-1848           
1 46740U 20074B   25312.50001156  .00189701  00000+0  34358-2 0  9995
2 46740  53.0494 131.4828 0011512 134.1892 291.9522 15.48411231  5839
STARLINK-1892           
1 46743U 20074E   25312.50357076  .00018144  00000+0  67430-3 0  9993
2 46743  53.0507 144.1613 0000693 129.9359 230.1701 15.27614434278437
STARLINK-1894           
1 46744U 20074F   25312.50001156  .01620108  00000+0  40295-1 0  9997
2 46744  53.0537 143.9244 0001510 103.2020 266.0021 15.36842433  5834
STARLINK-1905           
1 46746U 20074H   25312.46661686  .00098220  00000+0  28174-2 0  9990
2 46746  53.0543 143.5827 0001105 115.8352 244.2764 15.35092624278431
STARLINK-1911           
1 46749U 20074L   25312.50001156  .01105644  00000+0  26939-1 0  9994
2 46749  53.0630 143.8149 0001195  90.5410 275.1755 15.37649821  5737
STARLINK-1922           
1 46753U 20074Q   25312.50001156  .00097914  00000+0  28315-2 0  9999
2 46753  53.0552 143.7680 0001181  74.9133  95.3788 15.34839141  5828
STARLINK-1928           
1 46758U 20074V   25312.47387672  .00098739  00000+0  27228-2 0  9998
2 46758  53.0543 146.8956 0002228 139.7128 220.4039 15.36321740278397
STARLINK-1903           
1 46764U 20074AB  25312.48331877  .00850988  35853-3  15105-2 0  9993
2 46764  53.0058  53.0807 0008681 327.9322  32.1178 16.01262011279701
STARLINK-1832           
1 46780U 20074AT  25312.50001156  .01548084  00000+0  39170-1 0  9999
2 46780  53.0553 133.8903 0001226  79.0946 201.5021 15.36440434  5832
STARLINK-1835           
1 46782U 20074AV  25312.51915887  .00093931  00000+0  27458-2 0  9999
2 46782  53.0530 133.2677 0000523 133.6213 226.4831 15.34521431278588
STARLINK-1882           
1 46784U 20074AX  25312.24318026  .00083889  00000+0  28803-2 0  9999
2 46784  53.0584 132.8128 0002796 160.5471 199.5636 15.29424896278566
STARLINK-1893           
1 46786U 20074AZ  25312.19696359  .00091714  00000+0  34138-2 0  9997
2 46786  53.0588 115.6932 0000454 322.0128  38.0838 15.26730603278808
